start=new Date('2021-10-15T00:00:00.000Z').valueOf();
sats=[{"OBJECT_NAME":"STARLINK-1089","MEAN_ANOMALY":"281.5760","TIME_SYSTEM":"UTC","LAUNCH_DATE":"2020-01-07","COUNTRY_CODE":"US","NORAD_CAT_ID":"44967","ARG_OF_PERICENTER":"78.5398","DECAY_DATE":null,"SEMIMAJOR_AXIS":"6925.414","FILE":"3162486","SITE":"AFETR","BSTAR":"-0.00007729100000","MEAN_ELEMENT_THEORY":"SGP4","CENTER_NAME":"EARTH","CLASSIFICATION_TYPE":"U","REF_FRAME":"TEME","OBJECT_TYPE":"PAYLOAD","PERIAPSIS":"546.237","MEAN_MOTION_DOT":"-0.00001432","REV_AT_EPOCH":"9817","ECCENTRICITY":"0.00015050","RCS_SIZE":"LARGE","TLE_LINE1":"1 44967U 20001BF  21287.51010247 -.00001432  00000-0 -77291-4 0  9995","EPOCH":"2021-10-14T12:14:32.853408","APOAPSIS":"548.321","OBJECT_ID":"2020-001BF","GP_ID":"187155196","MEAN_MOTION":"15.06378683","EPHEMERIS_TYPE":"0","PERIOD":"95.593","INCLINATION":"53.0554","TLE_LINE2":"2 44967  53.0554 321.5356 0001505  78.5398 281.5760 15.06378683 98171","RA_OF_ASC_NODE":"321.5356","MEAN_MOTION_DDOT":"0.0000000000000","ELEMENT_SET_NO":"999"},{"RA_OF_ASC_NODE":"321.5464","TLE_LINE2":"2 44968  53.0548 321.5464 0001200  91.0958 269.0168 15.06409786 98171","PERIOD":"95.592","INCLINATION":"53.0548","ELEMENT_SET_NO":"999","MEAN_MOTION_DDOT":"0.0000000000000","TLE_LINE1":"1 44968U 20001BG  21287.50639584  .00000233  00000-0  34501-4 0  9999","RCS_SIZE":"LARGE","ECCENTRICITY":"0.00012000","EPHEMERIS_TYPE":"0","MEAN_MOTION":"15.06409786","GP_ID":"187155191","OBJECT_ID":"2020-001BG","APOAPSIS":"548.015","EPOCH":"2021-10-14T12:09:12.600576","OBJECT_TYPE":"PAYLOAD","REV_AT_EPOCH":"9817","MEAN_MOTION_DOT":"0.00000233","PERIAPSIS":"546.353","TIME_SYSTEM":"UTC","MEAN_ANOMALY":"269.0168","OBJECT_NAME":"STARLINK-1090","REF_FRAME":"TEME","CLASSIFICATION_TYPE":"U","CENTER_NAME":"EARTH","MEAN_ELEMENT_THEORY":"SGP4","FILE":"3162486","SITE":"AFETR","BSTAR":"0.00003450100000","SEMIMAJOR_AXIS":"6925.319","DECAY_DATE":null,"ARG_OF_PERICENTER":"91.0958","COUNTRY_CODE":"US","LAUNCH_DATE":"2020-01-07","NORAD_CAT_ID":"44968"},{"TLE_LINE2":"2 44969  53.0551 320.0916 0001082  85.2792 274.8321 15.06389992 98217","RA_OF_ASC_NODE":"320.0916","PERIOD":"95.593","INCLINATION":"53.0551","ELEMENT_SET_NO":"999","MEAN_MOTION_DDOT":"0.0000000000000","ECCENTRICITY":"0.00010820","TLE_LINE1":"1 44969U 20001BH  21287.83077297 -.00001441  00000-0 -77888-4 0  9992","RCS_SIZE":"LARGE","MEAN_MOTION":"15.06389992","GP_ID":"187188223","OBJECT_ID":"2020-001BH","EPHEMERIS_TYPE":"0","EPOCH":"2021-10-14T19:56:18.784608","APOAPSIS":"547.994","OBJECT_TYPE":"PAYLOAD","MEAN_MOTION_DOT":"-0.00001441","REV_AT_EPOCH":"9821","PERIAPSIS":"546.495","TIME_SYSTEM":"UTC","OBJECT_NAME":"STARLINK-1092","MEAN_ANOMALY":"274.8321","CENTER_NAME":"EARTH","MEAN_ELEMENT_THEORY":"SGP4","BSTAR":"-0.00007788800000","FILE":"3163138","SITE":"AFETR","CLASSIFICATION_TYPE":"U","REF_FRAME":"TEME","ARG_OF_PERICENTER":"85.2792","DECAY_DATE":null,"COUNTRY_CODE":"US","LAUNCH_DATE":"2020-01-07","NORAD_CAT_ID":"44969","SEMIMAJOR_AXIS":"6925.379"},{"REV_AT_EPOCH":"9820","MEAN_MOTION_DOT":"-0.00001702","PERIAPSIS":"546.461","OBJECT_TYPE":"PAYLOAD","CLASSIFICATION_TYPE":"U","REF_FRAME":"TEME","MEAN_ELEMENT_THEORY":"SGP4","CENTER_NAME":"EARTH","BSTAR":"-0.00009546200000","FILE":"3163138","SITE":"AFETR","SEMIMAJOR_AXIS":"6925.409","ARG_OF_PERICENTER":"87.1374","DECAY_DATE":null,"LAUNCH_DATE":"2020-01-07","COUNTRY_CODE":"US","NORAD_CAT_ID":"44970","TIME_SYSTEM":"UTC","MEAN_ANOMALY":"272.9749","OBJECT_NAME":"STARLINK-1093","ELEMENT_SET_NO":"999","MEAN_MOTION_DDOT":"0.0000000000000","TLE_LINE2":"2 44970  53.0559 320.1974 0001174  87.1374 272.9749 15.06380326 98205","RA_OF_ASC_NODE":"320.1974","PERIOD":"95.593","INCLINATION":"53.0559","EPHEMERIS_TYPE":"0","MEAN_MOTION":"15.06380326","GP_ID":"187187973","OBJECT_ID":"2020-001BJ","APOAPSIS":"548.087","EPOCH":"2021-10-14T19:24:28.900512","TLE_LINE1":"1 44970U 20001BJ  21287.80866783 -.00001702  00000-0 -95462-4 0  9995","RCS_SIZE":"LARGE","ECCENTRICITY":"0.00011740"},{"CENTER_NAME":"EARTH","MEAN_ELEMENT_THEORY":"SGP4","BSTAR":"-0.00009012900000","FILE":"3162489","SITE":"AFETR","CLASSIFICATION_TYPE":"U","REF_FRAME":"TEME","DECAY_DATE":null,"ARG_OF_PERICENTER":"95.9918","NORAD_CAT_ID":"44972","LAUNCH_DATE":"2020-01-07","COUNTRY_CODE":"US","SEMIMAJOR_AXIS":"6925.356","TIME_SYSTEM":"UTC","OBJECT_NAME":"STARLINK-1107","MEAN_ANOMALY":"264.1211","MEAN_MOTION_DOT":"-0.00001623","REV_AT_EPOCH":"9817","PERIAPSIS":"546.366","OBJECT_TYPE":"PAYLOAD","MEAN_MOTION":"15.06397733","GP_ID":"187155243","OBJECT_ID":"2020-001BL","EPHEMERIS_TYPE":"0","EPOCH":"2021-10-14T12:19:50.513376","APOAPSIS":"548.075","ECCENTRICITY":"0.00012340","TLE_LINE1":"1 44972U 20001BL  21287.51377909 -.00001623  00000-0 -90129-4 0  9999","RCS_SIZE":"LARGE","ELEMENT_SET_NO":"999","MEAN_MOTION_DDOT":"0.0000000000000","TLE_LINE2":"2 44972  53.0537 321.5107 0001234  95.9918 264.1211 15.06397733 98177","RA_OF_ASC_NODE":"321.5107","PERIOD":"95.592","INCLINATION":"53.0537"},{"GP_ID":"187187472","MEAN_MOTION":"15.06380373","OBJECT_ID":"2020-001BM","EPHEMERIS_TYPE":"0","EPOCH":"2021-10-14T19:45:42.219648","APOAPSIS":"548.313","ECCENTRICITY":"0.00015000","TLE_LINE1":"1 44973U 20001BM  21287.82340532 -.00002726  00000-0 -16426-3 0  9998","RCS_SIZE":"LARGE","ELEMENT_SET_NO":"999","MEAN_MOTION_DDOT":"0.0000000000000","RA_OF_ASC_NODE":"320.1272","TLE_LINE2":"2 44973  53.0551 320.1272 0001500  78.1140 282.0018 15.06380373 98219","PERIOD":"95.593","INCLINATION":"53.0551","MEAN_ELEMENT_THEORY":"SGP4","CENTER_NAME":"EARTH","SITE":"AFETR","FILE":"3163138","BSTAR":"-0.00016426000000","CLASSIFICATION_TYPE":"U","REF_FRAME":"TEME","DECAY_DATE":null,"ARG_OF_PERICENTER":"78.1140","LAUNCH_DATE":"2020-01-07","NORAD_CAT_ID":"44973","COUNTRY_CODE":"US","SEMIMAJOR_AXIS":"6925.409","TIME_SYSTEM":"UTC","OBJECT_NAME":"STARLINK-1115","MEAN_ANOMALY":"282.0018","MEAN_MOTION_DOT":"-0.00002726","REV_AT_EPOCH":"9821","PERIAPSIS":"546.235","OBJECT_TYPE":"PAYLOAD"},{"MEAN_MOTION_DOT":"0.00000073","REV_AT_EPOCH":"9446","PERIAPSIS":"546.186","OBJECT_TYPE":"PAYLOAD","CENTER_NAME":"EARTH","MEAN_ELEMENT_THEORY":"SGP4","SITE":"AFETR","FILE":"3161855","BSTAR":"0.00002377400000","CLASSIFICATION_TYPE":"U","REF_FRAME":"TEME","DECAY_DATE":null,"ARG_OF_PERICENTER":"72.7475","COUNTRY_CODE":"US","LAUNCH_DATE":"2020-01-29","NORAD_CAT_ID":"45044","SEMIMAJOR_AXIS":"6925.343","TIME_SYSTEM":"UTC","OBJECT_NAME":"STARLINK-1132","MEAN_ANOMALY":"287.3675","ELEMENT_SET_NO":"999","MEAN_MOTION_DDOT":"0.0000000000000","RA_OF_ASC_NODE":"282.6267","TLE_LINE2":"2 45044  53.0543 282.6267 0001476  72.7475 287.3675 15.06401680 94464","INCLINATION":"53.0543","PERIOD":"95.592","GP_ID":"187137118","MEAN_MOTION":"15.06401680","OBJECT_ID":"2020-006A","EPHEMERIS_TYPE":"0","EPOCH":"2021-10-14T06:24:13.408704","APOAPSIS":"548.231","ECCENTRICITY":"0.00014760","TLE_LINE1":"1 45044U 20006A   21287.26682186  .00000073  00000-0  23774-4 0  9991","RCS_SIZE":"LARGE"},{"EPOCH":"2021-10-14T10:52:15.544416","APOAPSIS":"548.173","OBJECT_ID":"2020-006B","GP_ID":"187135367","MEAN_MOTION":"15.06398769","EPHEMERIS_TYPE":"0","ECCENTRICITY":"0.00013800","TLE_LINE1":"1 45045U 20006B   21287.45295769  .00000741  00000-0  68667-4 0  9992","RCS_SIZE":"LARGE","MEAN_MOTION_DDOT":"0.0000000000000","ELEMENT_SET_NO":"999","PERIOD":"95.592","INCLINATION":"53.0535","TLE_LINE2":"2 45045  53.0535 301.7881 0001380  78.3044 281.8100 15.06398769 94217","RA_OF_ASC_NODE":"301.7881","LAUNCH_DATE":"2020-01-29","NORAD_CAT_ID":"45045","COUNTRY_CODE":"US","DECAY_DATE":null,"ARG_OF_PERICENTER":"78.3044","SEMIMAJOR_AXIS":"6925.352","FILE":"3161855","BSTAR":"0.00006866700000","SITE":"AFETR","MEAN_ELEMENT_THEORY":"SGP4","CENTER_NAME":"EARTH","CLASSIFICATION_TYPE":"U","REF_FRAME":"TEME","OBJECT_NAME":"STARLINK-1120","MEAN_ANOMALY":"281.8100","TIME_SYSTEM":"UTC","PERIAPSIS":"546.262","MEAN_MOTION_DOT":"0.00000741","REV_AT_EPOCH":"9421","OBJECT_TYPE":"PAYLOAD"},{"ECCENTRICITY":"0.00012500","RCS_SIZE":"LARGE","TLE_LINE1":"1 45046U 20006C   21287.51198301  .00006321  00000-0  42320-3 0  9991","GP_ID":"187135617","MEAN_MOTION":"15.08096827","OBJECT_ID":"2020-006C","EPHEMERIS_TYPE":"0","EPOCH":"2021-10-14T12:17:15.332064","APOAPSIS":"542.883","TLE_LINE2":"2 45046  52.9980 298.2732 0001250  73.8668 286.2458 15.08096827 94243","RA_OF_ASC_NODE":"298.2732","PERIOD":"95.485","INCLINATION":"52.9980","ELEMENT_SET_NO":"999","MEAN_MOTION_DDOT":"0.0000000000000","TIME_SYSTEM":"UTC","OBJECT_NAME":"STARLINK-1129","MEAN_ANOMALY":"286.2458","CENTER_NAME":"EARTH","MEAN_ELEMENT_THEORY":"SGP4","FILE":"3161855","BSTAR":"0.00042320000000","SITE":"AFETR","CLASSIFICATION_TYPE":"U","REF_FRAME":"TEME","DECAY_DATE":null,"ARG_OF_PERICENTER":"73.8668","LAUNCH_DATE":"2020-01-29","COUNTRY_CODE":"US","NORAD_CAT_ID":"45046","SEMIMAJOR_AXIS":"6920.153","OBJECT_TYPE":"PAYLOAD","MEAN_MOTION_DOT":"0.00006321","REV_AT_EPOCH":"9424","PERIAPSIS":"541.153"},{"ELEMENT_SET_NO":"999","MEAN_MOTION_DDOT":"0.0000000000000","TLE_LINE2":"2 45047  53.0541 301.7794 0001281  82.5959 277.5176 15.06387111 94215","RA_OF_ASC_NODE":"301.7794","INCLINATION":"53.0541","PERIOD":"95.593","EPHEMERIS_TYPE":"0","MEAN_MOTION":"15.06387111","GP_ID":"187136867","OBJECT_ID":"2020-006D","APOAPSIS":"548.140","EPOCH":"2021-10-14T10:57:34.299072","TLE_LINE1":"1 45047U 20006D   21287.45664698  .00000016  00000-0  19984-4 0  9998","RCS_SIZE":"LARGE","ECCENTRICITY":"0.00012810","REV_AT_EPOCH":"9421","MEAN_MOTION_DOT":"0.00000016","PERIAPSIS":"546.366","OBJECT_TYPE":"PAYLOAD","REF_FRAME":"TEME","CLASSIFICATION_TYPE":"U","MEAN_ELEMENT_THEORY":"SGP4","CENTER_NAME":"EARTH","BSTAR":"0.00001998400000","FILE":"3161855","SITE":"AFETR","SEMIMAJOR_AXIS":"6925.388","ARG_OF_PERICENTER":"82.5959","DECAY_DATE":null,"COUNTRY_CODE":"US","LAUNCH_DATE":"2020-01-29","NORAD_CAT_ID":"45047","TIME_SYSTEM":"UTC","MEAN_ANOMALY":"277.5176","OBJECT_NAME":"STARLINK-1131"}];
